GLOBALSTAR M068         
1 32266U 07048D   25362.21866736 -.00000070  00000+0  18735-3 0  9999
2 32266  51.9897  70.7768 0001329 177.4487 221.3870 12.62836195842075
GLOBALSTAR M079         
1 37188U 10054A   25361.94444596 -.00000082  00000+0  12325-3 0  9995
2 37188  52.0033 269.9601 0000911  43.4238  37.0895 12.62269155700929
GLOBALSTAR M074         
1 37189U 10054B   25362.46598562 -.00000085  00000+0  10634-3 0  9991
2 37189  52.0019 267.6651 0000965  65.6787 105.5995 12.62264582701593
GLOBALSTAR M076         
1 37190U 10054C   25362.49277595 -.00000091  00000+0  73952-4 0  9996
2 37190  52.0032 267.7733 0001065  58.5594 113.5879 12.62268548701317
GLOBALSTAR M077         
1 37191U 10054D   25362.49230774 -.00000075  00000+0  61135-4 0  9997
2 37191  51.9963 252.8696 0001490  51.0288 120.6595 11.68176626701192
GLOBALSTAR M075         
1 37192U 10054E   25358.21427079 -.00000088  00000+0  85706-4 0  9993
2 37192  52.0022 322.9423 0000480 109.7567 352.3949 12.62261317699849
GLOBALSTAR M073         
1 37193U 10054F   25362.10919029 -.00000081  00000+0  12941-3 0  9991
2 37193  52.0038 225.0583 0001142  65.2262 102.4041 12.62268473702326
GLOBALSTAR M083         
1 37739U 11033A   25361.88024148 -.00000079  00000+0  13776-3 0  9992
2 37739  51.9831 174.2159 0001042  81.7315  66.9459 12.62266126671310
GLOBALSTAR M088         
1 37740U 11033B   25362.39276046 -.00000101  00000+0  16010-4 0  9998
2 37740  52.0224  78.6686 0000686 129.7451 308.4428 12.62271098666924
GLOBALSTAR M091         
1 37741U 11033C   25362.39186890 -.00000108  00000+0 -25470-4 0  9994
2 37741  52.0012  41.8908 0000306 141.5614 231.7325 12.62268237667714
GLOBALSTAR M085         
1 37742U 11033D   25362.40787940 -.00000094  00000+0  55600-4 0  9991
2 37742  52.0147 352.9841 0000185  14.9677 131.7610 12.62267492668228
GLOBALSTAR M081         
1 37743U 11033E   25351.59018587 -.00000087  00000+0  92331-4 0  9998
2 37743  51.9980  28.5496 0000222  94.7932  71.3857 12.62270971667009
GLOBALSTAR M089         
1 37744U 11033F   25362.31919920 -.00000083  00000+0  11558-3 0  9999
2 37744  51.9951 310.0758 0000757  71.2055  93.3103 12.62262838669202
GLOBALSTAR M084         
1 38040U 11080A   25362.45876646 -.00000078  00000+0  14649-3 0  9991
2 38040  51.9982 177.0412 0001375  93.1856 284.9960 12.62266968647206
GLOBALSTAR M080         
1 38041U 11080B   25361.79580523 -.00000085  00000+0  10618-3 0  9994
2 38041  52.0029 180.7186 0000685 106.9541 267.0330 12.62265242647248
GLOBALSTAR M082         
1 38042U 11080C   25362.36660752 -.00000095  00000+0  47620-4 0  9997
2 38042  52.0058 134.4627 0000676 121.1585 257.5981 12.62266358648026
GLOBALSTAR M092         
1 38043U 11080D   25362.37385807 -.00000086  00000+0  97457-4 0  9997
2 38043  52.0062 224.8306 0001014  77.7021  93.7168 12.62268857646478
GLOBALSTAR M090         
1 38044U 11080E   25362.31379654 -.00000095  00000+0  48185-4 0  9999
2 38044  52.0109 128.5249 0000783 102.2783 275.2403 12.62265520648136
GLOBALSTAR M086         
1 38045U 11080F   25361.56022425 -.00000088  00000+0  90571-4 0  9995
2 38045  51.9886 131.0278 0001500  60.5284  21.5307 12.62281470647987
GLOBALSTAR M097         
1 39072U 13005A   25362.36230502 -.00000100  00000+0  19480-4 0  9996
2 39072  52.0062  43.3413 0000321  91.8594 268.2309 12.62267679595331
GLOBALSTAR M093         
1 39073U 13005B   25362.41536433 -.00000102  00000+0  81955-5 0  9994
2 39073  52.0120  36.4627 0000217  47.5116 312.5769 12.62271236595291
GLOBALSTAR M094         
1 39074U 13005C   25362.33609019 -.00000098  00000+0  29779-4 0  9996
2 39074  51.9980 310.9920 0000639  31.1770 328.9134 12.62265436596892
GLOBALSTAR M096         
1 39075U 13005D   25362.42828946 -.00000102  00000+0  12404-4 0  9992
2 39075  52.0092 359.3750 0000201  21.5564 338.5311 12.62269514595823
GLOBALSTAR M078         
1 39076U 13005E   25362.40225957 -.00000205  00000+0 -56715-3 0  9991
2 39076  51.9883  83.7022 0000639 207.2670 152.8163 12.62270799594442
GLOBALSTAR M095         
1 39077U 13005F   25362.50774916 -.00000103  00000+0  48757-5 0  9992
2 39077  52.0092  80.7429 0000232 148.1185 211.9696 12.62267313594310
GLOBALSTAR M087         
1 52888U 22064A   25362.36247255 -.00000088  00000+0  88278-4 0  9990
2 52888  51.9970 222.5218 0000930  64.8714 295.2249 12.62262004169563
